NORAD_CAT_ID,OBJECT_NAME,OBJECT_TYPE,EPOCH,MEAN_MOTION,ECCENTRICITY,INCLINATION,RA_OF_ASC_NODE,ARG_OF_PERICENTER,MEAN_ANOMALY,BSTAR,MEAN_MOTION_DOT,MEAN_MOTION_DDOT,TLE_LINE0,TLE_LINE1,TLE_LINE2,SEMIMAJOR_AXIS,PERIOD,APOGEE,PERIGEE,DECAYED
52637.0,STARLINK-3961,PAYLOAD,2024-07-01 04:18:45,15.08841835,0.0001401,53.2164,146.7424,92.8028,267.3125,5.7288e-06,-1.97e-06,0.0,0 STARLINK-3961,1 52637U 22052AR  24183.17969813 -.00000197  00000-0  57288-5 0  9999,2 52637  53.2164 146.7424 0001401  92.8028 267.3125 15.08841835118435,6917.875,95.437,540.709,538.771,0.0
52637.0,STARLINK-3961,PAYLOAD,2024-07-01 21:48:00,15.08834055,0.0001411,53.2167,143.4715,96.7863,263.329,9.6105e-05,1.242e-05,0.0,0 STARLINK-3961,1 52637U 22052AR  24183.90833941  .00001242  00000-0  96105-4 0  9993,2 52637  53.2167 143.4715 0001411  96.7863 263.3290 15.08834055118970,6917.899,95.438,540.74,538.787,0.0
52637.0,STARLINK-3961,PAYLOAD,2024-07-02 04:09:33,15.0883398,0.0001234,53.2159,142.2847,87.9478,272.1655,1.8749e-05,1.1e-07,0.0,0 STARLINK-3961,1 52637U 22052AR  24184.17330373  .00000011  00000-0  18749-4 0  9995,2 52637  53.2159 142.2847 0001234  87.9478 272.1655 15.08833980118587,6917.899,95.438,540.617,538.91,0.0
52637.0,STARLINK-3961,PAYLOAD,2024-07-02 13:41:51,15.08843887,0.0001266,53.2164,140.4998,88.5322,271.5815,6.8562e-05,8.04e-06,0.0,0 STARLINK-3961,1 52637U 22052AR  24184.57073578  .00000804  00000-0  68562-4 0  9998,2 52637  53.2164 140.4998 0001266  88.5322 271.5815 15.08843887119073,6917.869,95.437,540.609,538.858,0.0
52637.0,STARLINK-3961,PAYLOAD,2024-07-02 21:38:48,15.08838204,0.0001724,53.216,139.0156,98.8609,261.2578,-3.2585e-05,-8.07e-06,0.0,0 STARLINK-3961,1 52637U 22052AR  24184.90194512 -.00000807  00000-0 -32585-4 0  9998,2 52637  53.2160 139.0156 0001724  98.8609 261.2578 15.08838204119125,6917.886,95.438,540.944,538.558,0.0
52637.0,STARLINK-3961,PAYLOAD,2024-07-03 04:00:20,15.08833334,0.000138,53.2169,137.8236,96.8241,263.2909,-4.8273e-05,-1.056e-05,0.0,0 STARLINK-3961,1 52637U 22052AR  24185.16690871 -.00001056  00000-0 -48273-4 0  9994,2 52637  53.2169 137.8236 0001380  96.8241 263.2909 15.08833334118732,6917.901,95.438,540.72,538.811,0.0
52637.0,STARLINK-3961,PAYLOAD,2024-07-03 13:32:38,15.08843165,0.0001338,53.2173,136.0398,94.7965,265.318,3.3878e-05,2.51e-06,0.0,0 STARLINK-3961,1 52637U 22052AR  24185.56433986  .00000251  00000-0  33878-4 0  9999,2 52637  53.2173 136.0398 0001338  94.7965 265.3180 15.08843165118793,6917.871,95.437,540.661,538.81,0.0
52637.0,STARLINK-3961,PAYLOAD,2024-07-04 03:51:08,15.08830504,0.0001411,53.2166,133.3654,101.6948,258.4202,2.5958e-05,1.25e-06,0.0,0 STARLINK-3961,1 52637U 22052AR  24186.16050986  .00000125  00000-0  25958-4 0  9991,2 52637  53.2166 133.3654 0001411 101.6948 258.4202 15.08830504118882,6917.909,95.438,540.751,538.798,0.0
52637.0,STARLINK-3961,PAYLOAD,2024-07-04 13:23:25,15.08846764,0.0001394,53.2174,131.5777,79.0755,281.0394,6.6664e-05,7.73e-06,0.0,0 STARLINK-3961,1 52637U 22052AR  24186.55793856  .00000773  00000-0  66664-4 0  9992,2 52637  53.2174 131.5777 0001394  79.0755 281.0394 15.08846764119375,6917.86,95.437,540.689,538.76,0.0
52637.0,STARLINK-3961,PAYLOAD,2024-07-05 03:41:54,15.08834717,0.0001323,53.217,128.9031,84.9078,275.2065,2.9792e-05,1.86e-06,0.0,0 STARLINK-3961,1 52637U 22052AR  24187.15410835  .00000186  00000-0  29792-4 0  9991,2 52637  53.2170 128.9031 0001323  84.9078 275.2065 15.08834717119037,6917.897,95.438,540.677,538.846,0.0
52637.0,STARLINK-3961,PAYLOAD,2024-07-05 13:14:13,15.0884643,0.0001379,53.2173,127.1195,88.4518,271.6632,5.6031e-05,6.04e-06,0.0,0 STARLINK-3961,1 52637U 22052AR  24187.55153960  .00000604  00000-0  56031-4 0  9999,2 52637  53.2173 127.1195 0001379  88.4518 271.6632 15.08846430119520,6917.861,95.437,540.68,538.772,0.0
52637.0,STARLINK-3961,PAYLOAD,2024-07-06 01:57:19,15.08827008,0.0001143,53.2152,124.7403,97.6869,262.4253,-1.2101e-05,-4.8e-06,0.0,0 STARLINK-3961,1 52637U 22052AR  24188.08147493 -.00000480  00000-0 -12101-4 0  9996,2 52637  53.2152 124.7403 0001143  97.6869 262.4253 15.08827008119170,6917.92,95.438,540.576,538.994,0.0
52637.0,STARLINK-3961,PAYLOAD,2024-07-06 05:08:05,15.08839537,0.0001352,53.2178,124.1415,86.4894,273.6253,-5.0448e-05,-1.091e-05,0.0,0 STARLINK-3961,1 52637U 22052AR  24188.21394897 -.00001091  00000-0 -50448-4 0  9998,2 52637  53.2178 124.1415 0001352  86.4894 273.6253 15.08839537119197,6917.882,95.438,540.682,538.812,0.0
52637.0,STARLINK-3961,PAYLOAD,2024-07-06 13:04:59,15.08849773,0.0001242,53.2163,122.6552,88.8399,271.2736,1.9871e-05,2.8e-07,0.0,0 STARLINK-3961,1 52637U 22052AR  24188.54513854  .00000028  00000-0  19871-4 0  9992,2 52637  53.2163 122.6552 0001242  88.8399 271.2736 15.08849773119676,6917.851,95.437,540.575,538.856,0.0
52637.0,STARLINK-3961,PAYLOAD,2024-07-06 21:01:57,15.08826348,0.0001455,53.2181,121.1724,84.7789,275.3369,-2.0754e-05,-6.18e-06,0.0,0 STARLINK-3961,1 52637U 22052AR  24188.87635604 -.00000618  00000-0 -20754-4 0  9995,2 52637  53.2181 121.1724 0001455  84.7789 275.3369 15.08826348119293,6917.922,95.438,540.794,538.781,0.0
52637.0,STARLINK-3961,PAYLOAD,2024-07-07 04:58:52,15.08840312,0.0001383,53.2164,119.6822,96.702,263.4129,-1.8097e-05,-5.76e-06,0.0,0 STARLINK-3961,1 52637U 22052AR  24189.20754750 -.00000576  00000-0 -18097-4 0  9997,2 52637  53.2164 119.6822 0001383  96.7020 263.4129 15.08840312119341,6917.879,95.438,540.701,538.788,0.0
52637.0,STARLINK-3961,PAYLOAD,2024-07-07 22:28:06,15.08836965,0.0001362,53.2158,116.4115,97.6593,262.4554,0.00011239,1.501e-05,0.0,0 STARLINK-3961,1 52637U 22052AR  24189.93618463  .00001501  00000-0  11239-3 0  9994,2 52637  53.2158 116.4115 0001362  97.6593 262.4554 15.08836965119885,6917.89,95.438,540.697,538.812,0.0
52637.0,STARLINK-3961,PAYLOAD,2024-07-08 22:18:53,15.0883558,0.0001416,53.2172,111.951,98.7832,261.332,7.772e-05,9.49e-06,0.0,0 STARLINK-3961,1 52637U 22052AR  24190.92978657  .00000949  00000-0  77720-4 0  9992,2 52637  53.2172 111.9510 0001416  98.7832 261.3320 15.08835580120038,6917.894,95.438,540.738,538.779,0.0
52637.0,STARLINK-3961,PAYLOAD,2024-07-09 01:29:39,15.08835353,0.0001414,53.2175,111.3558,101.3783,258.7368,6.9866e-05,8.24e-06,0.0,0 STARLINK-3961,1 52637U 22052AR  24191.06226719  .00000824  00000-0  69866-4 0  9997,2 52637  53.2175 111.3558 0001414 101.3783 258.7368 15.08835353119624,6917.895,95.438,540.738,538.781,0.0
52637.0,STARLINK-3961,PAYLOAD,2024-07-09 22:09:41,15.08832176,0.0001359,53.2175,107.49,102.139,257.9754,-6.819e-05,-1.373e-05,0.0,0 STARLINK-3961,1 52637U 22052AR  24191.92339491 -.00001373  00000-0 -68190-4 0  9995,2 52637  53.2175 107.4900 0001359 102.1390 257.9754 15.08832176120185,6917.904,95.438,540.709,538.829,0.0
52637.0,STARLINK-3961,PAYLOAD,2024-07-10 04:31:13,15.08838911,0.0001291,53.2174,106.302,99.4728,260.641,-0.0001115,-2.062e-05,0.0,0 STARLINK-3961,1 52637U 22052AR  24192.18835281 -.00002062  00000-0 -11150-3 0  9991,2 52637  53.2174 106.3020 0001291  99.4728 260.6410 15.08838911119791,6917.884,95.438,540.642,538.856,0.0
52637.0,STARLINK-3961,PAYLOAD,2024-07-10 10:52:45,15.08839015,0.0001319,53.2179,105.1141,100.8384,259.2757,1.9683e-05,2.5e-07,0.0,0 STARLINK-3961,1 52637U 22052AR  24192.45330915  .00000025  00000-0  19683-4 0  9990,2 52637  53.2179 105.1141 0001319 100.8384 259.2757 15.08839015120261,6917.883,95.438,540.661,538.836,0.0
52637.0,STARLINK-3961,PAYLOAD,2024-07-10 22:00:28,15.08829849,0.0001402,53.2187,103.0334,100.7198,259.3952,-1.6717e-05,-5.54e-06,0.0,0 STARLINK-3961,1 52637U 22052AR  24192.91699797 -.00000554  00000-0 -16717-4 0  9991,2 52637  53.2187 103.0334 0001402 100.7198 259.3952 15.08829849120336,6917.911,95.438,540.746,538.807,0.0
52637.0,STARLINK-3961,PAYLOAD,2024-07-11 02:46:37,15.08835002,0.0001484,53.219,102.143,101.7833,258.3325,3.3561e-05,2.46e-06,0.0,0 STARLINK-3961,1 52637U 22052AR  24193.11571414  .00000246  00000-0  33561-4 0  9991,2 52637  53.2190 102.1430 0001484 101.7833 258.3325 15.08835002120368,6917.896,95.438,540.787,538.734,0.0
52637.0,STARLINK-3961,PAYLOAD,2024-07-12 04:12:47,15.08837143,0.0001358,53.2187,97.3817,86.2672,273.8475,0.0001278,1.746e-05,0.0,0 STARLINK-3961,1 52637U 22052AR  24194.17555272  .00001746  00000-0  12780-3 0  9997,2 52637  53.2187  97.3817 0001358  86.2672 273.8475 15.08837143120092,6917.889,95.438,540.694,538.815,0.0
52637.0,STARLINK-3961,PAYLOAD,2024-07-12 21:42:02,15.08834549,0.0001308,53.2187,94.1086,78.6119,281.502,8.6793e-05,1.093e-05,0.0,0 STARLINK-3961,1 52637U 22052AR  24194.90419621  .00001093  00000-0  86793-4 0  9996,2 52637  53.2187  94.1086 0001308  78.6119 281.5020 15.08834549120630,6917.897,95.438,540.667,538.857,0.0
52637.0,STARLINK-3961,PAYLOAD,2024-07-13 10:25:05,15.08864244,0.0001377,53.2167,91.7298,71.2126,288.9016,0.00016779,2.385e-05,0.0,0 STARLINK-3961,1 52637U 22052AR  24195.43409138  .00002385  00000-0  16779-3 0  9998,2 52637  53.2167  91.7298 0001377  71.2126 288.9016 15.08864244120281,6917.806,95.436,540.624,538.719,0.0
52637.0,STARLINK-3961,PAYLOAD,2024-07-13 16:46:40,15.08825718,0.000132,53.217,90.5401,88.89,271.2244,-0.00010942,-2.028e-05,0.0,0 STARLINK-3961,1 52637U 22052AR  24195.69908340 -.00002028  00000-0 -10942-3 0  9997,2 52637  53.2170  90.5401 0001320  88.8900 271.2244 15.08825718120326,6917.924,95.438,540.702,538.876,0.0
52637.0,STARLINK-3961,PAYLOAD,2024-07-13 23:08:13,15.08829585,9.13e-05,53.2158,89.353,102.6312,257.4782,-9.2727e-05,-1.763e-05,0.0,0 STARLINK-3961,1 52637U 22052AR  24195.96404016 -.00001763  00000-0 -92727-4 0  9995,2 52637  53.2158  89.3530 0000913 102.6312 257.4782 15.08829585120790,6917.912,95.438,540.409,539.146,0.0
52637.0,STARLINK-3961,PAYLOAD,2024-07-14 02:18:58,15.08838755,0.0001363,53.2178,88.7557,73.2061,286.908,-1.648e-06,-3.14e-06,0.0,0 STARLINK-3961,1 52637U 22052AR  24196.09651481 -.00000314  00000-0 -16480-5 0  9994,2 52637  53.2178  88.7557 0001363  73.2061 286.9080 15.08838755120380,6917.884,95.438,540.692,538.806,0.0
